start=new Date('2021-11-21T00:00:00.000Z').valueOf();
sats=[{"EPHEMERIS_TYPE":"0","ARG_OF_PERICENTER":"59.3994","OBJECT_NAME":"STARLINK-2567","SEMIMAJOR_AXIS":"6925.229","MEAN_MOTION_DOT":"-0.00072932","MEAN_MOTION":"15.06438971","GP_ID":"190144249","DECAY_DATE":null,"CLASSIFICATION_TYPE":"U","PERIOD":"95.590","BSTAR":"-0.00492230000000","TLE_LINE1":"1 48276U 21036A   21324.91667824 -.00072932  00000-0 -49223-2 0  9991","SITE":"AFETR","MEAN_ELEMENT_THEORY":"SGP4","ELEMENT_SET_NO":"999","CENTER_NAME":"EARTH","FILE":"3220067","APOAPSIS":"548.616","INCLINATION":"53.0540","MEAN_MOTION_DDOT":"0.0000000000000","NORAD_CAT_ID":"48276","ECCENTRICITY":"0.00021980","TIME_SYSTEM":"UTC","RA_OF_ASC_NODE":"253.5895","RCS_SIZE":"LARGE","OBJECT_TYPE":"PAYLOAD","EPOCH":"2021-11-20T22:00:00.999936","TLE_LINE2":"2 48276  53.0540 253.5895 0002198  59.3994 359.8120 15.06438971 32784","LAUNCH_DATE":"2021-04-29","COUNTRY_CODE":"US","PERIAPSIS":"545.572","REF_FRAME":"TEME","MEAN_ANOMALY":"359.8120","REV_AT_EPOCH":"3278","OBJECT_ID":"2021-036A"},{"ECCENTRICITY":"0.00061380","NORAD_CAT_ID":"48277","TIME_SYSTEM":"UTC","RCS_SIZE":"LARGE","RA_OF_ASC_NODE":"226.7338","OBJECT_TYPE":"PAYLOAD","TLE_LINE2":"2 48277  53.0523 226.7338 0006138 310.0772 151.9511 15.73252826 33153","EPOCH":"2021-11-20T22:00:00.999936","PERIAPSIS":"345.480","COUNTRY_CODE":"US","LAUNCH_DATE":"2021-04-29","MEAN_ANOMALY":"151.9511","REF_FRAME":"TEME","OBJECT_ID":"2021-036B","REV_AT_EPOCH":"3315","OBJECT_NAME":"STARLINK-2569","ARG_OF_PERICENTER":"310.0772","EPHEMERIS_TYPE":"0","MEAN_MOTION":"15.73252826","MEAN_MOTION_DOT":"-0.00097682","SEMIMAJOR_AXIS":"6727.745","DECAY_DATE":null,"GP_ID":"190145008","PERIOD":"91.530","CLASSIFICATION_TYPE":"U","SITE":"AFETR","TLE_LINE1":"1 48277U 21036B   21324.91667824 -.00097682  00000-0 -69699-3 0  9991","BSTAR":"-0.00069699000000","MEAN_ELEMENT_THEORY":"SGP4","INCLINATION":"53.0523","APOAPSIS":"353.739","FILE":"3220106","ELEMENT_SET_NO":"999","CENTER_NAME":"EARTH","MEAN_MOTION_DDOT":"0.0000000000000"},{"BSTAR":"-0.03869900000000","SITE":"AFETR","TLE_LINE1":"1 48278U 21036C   21324.91667824 -.00546362  00000-0 -38699-1 0  9990","MEAN_ELEMENT_THEORY":"SGP4","FILE":"3220069","APOAPSIS":"547.237","CENTER_NAME":"EARTH","ELEMENT_SET_NO":"999","INCLINATION":"53.0488","MEAN_MOTION_DDOT":"0.0000000000000","EPHEMERIS_TYPE":"0","OBJECT_NAME":"STARLINK-2543","ARG_OF_PERICENTER":"48.4517","MEAN_MOTION_DOT":"-0.00546362","SEMIMAJOR_AXIS":"6924.138","MEAN_MOTION":"15.06795158","GP_ID":"190144134","DECAY_DATE":null,"CLASSIFICATION_TYPE":"U","PERIOD":"95.567","EPOCH":"2021-11-20T22:00:00.999936","TLE_LINE2":"2 48278  53.0488 233.5960 0001783  48.4517 225.4812 15.06795158 33068","LAUNCH_DATE":"2021-04-29","PERIAPSIS":"544.768","COUNTRY_CODE":"US","MEAN_ANOMALY":"225.4812","REF_FRAME":"TEME","REV_AT_EPOCH":"3306","OBJECT_ID":"2021-036C","NORAD_CAT_ID":"48278","ECCENTRICITY":"0.00017830","TIME_SYSTEM":"UTC","RA_OF_ASC_NODE":"233.5960","RCS_SIZE":"LARGE","OBJECT_TYPE":"PAYLOAD"},{"MEAN_MOTION":"15.06526562","SEMIMAJOR_AXIS":"6924.961","MEAN_MOTION_DOT":"-0.00201282","ARG_OF_PERICENTER":"49.8967","OBJECT_NAME":"STARLINK-2580","EPHEMERIS_TYPE":"0","PERIOD":"95.584","CLASSIFICATION_TYPE":"U","DECAY_DATE":null,"GP_ID":"190144258","MEAN_ELEMENT_THEORY":"SGP4","TLE_LINE1":"1 48279U 21036D   21324.91667824 -.00201282  00000-0 -13833-1 0  9993","SITE":"AFETR","BSTAR":"-0.01383300000000","MEAN_MOTION_DDOT":"0.0000000000000","INCLINATION":"53.0471","ELEMENT_SET_NO":"999","CENTER_NAME":"EARTH","APOAPSIS":"548.062","FILE":"3220069","TIME_SYSTEM":"UTC","ECCENTRICITY":"0.00017850","NORAD_CAT_ID":"48279","OBJECT_TYPE":"PAYLOAD","RCS_SIZE":"LARGE","RA_OF_ASC_NODE":"233.5957","COUNTRY_CODE":"US","PERIAPSIS":"545.590","LAUNCH_DATE":"2021-04-29","TLE_LINE2":"2 48279  53.0471 233.5957 0001785  49.8967 199.0750 15.06526562 33061","EPOCH":"2021-11-20T22:00:00.999936","OBJECT_ID":"2021-036D","REV_AT_EPOCH":"3306","REF_FRAME":"TEME","MEAN_ANOMALY":"199.0750"},{"MEAN_ELEMENT_THEORY":"SGP4","SITE":"AFETR","TLE_LINE1":"1 48280U 21036E   21324.66527924  .00001320  00000-0  10754-3 0  9993","BSTAR":"0.00010754000000","MEAN_MOTION_DDOT":"0.0000000000000","INCLINATION":"53.0554","APOAPSIS":"548.386","FILE":"3220070","ELEMENT_SET_NO":"999","CENTER_NAME":"EARTH","MEAN_MOTION":"15.06397662","MEAN_MOTION_DOT":"0.00001320","SEMIMAJOR_AXIS":"6925.356","OBJECT_NAME":"STARLINK-2565","ARG_OF_PERICENTER":"63.3027","EPHEMERIS_TYPE":"0","PERIOD":"95.592","CLASSIFICATION_TYPE":"U","DECAY_DATE":null,"GP_ID":"190144268","PERIAPSIS":"546.055","COUNTRY_CODE":"US","LAUNCH_DATE":"2021-04-29","TLE_LINE2":"2 48280  53.0554 304.7187 0001683  63.3027 296.8134 15.06397662 32042","EPOCH":"2021-11-20T15:58:00.126336","OBJECT_ID":"2021-036E","REV_AT_EPOCH":"3204","MEAN_ANOMALY":"296.8134","REF_FRAME":"TEME","TIME_SYSTEM":"UTC","ECCENTRICITY":"0.00016830","NORAD_CAT_ID":"48280","OBJECT_TYPE":"PAYLOAD","RCS_SIZE":"LARGE","RA_OF_ASC_NODE":"304.7187"},{"MEAN_MOTION_DDOT":"0.0000000000000","INCLINATION":"53.0560","ELEMENT_SET_NO":"999","CENTER_NAME":"EARTH","APOAPSIS":"548.536","FILE":"3220070","MEAN_ELEMENT_THEORY":"SGP4","TLE_LINE1":"1 48281U 21036F   21324.61184570  .00001679  00000-0  13165-3 0  9991","SITE":"AFETR","BSTAR":"0.00013165000000","PERIOD":"95.593","CLASSIFICATION_TYPE":"U","DECAY_DATE":null,"GP_ID":"190144270","MEAN_MOTION":"15.06390791","SEMIMAJOR_AXIS":"6925.377","MEAN_MOTION_DOT":"0.00001679","ARG_OF_PERICENTER":"66.4657","OBJECT_NAME":"STARLINK-2520","EPHEMERIS_TYPE":"0","OBJECT_ID":"2021-036F","REV_AT_EPOCH":"3231","REF_FRAME":"TEME","MEAN_ANOMALY":"293.6528","COUNTRY_CODE":"US","PERIAPSIS":"545.947","LAUNCH_DATE":"2021-04-29","TLE_LINE2":"2 48281  53.0560 284.9630 0001869  66.4657 293.6528 15.06390791 32319","EPOCH":"2021-11-20T14:41:03.468480","OBJECT_TYPE":"PAYLOAD","RCS_SIZE":"LARGE","RA_OF_ASC_NODE":"284.9630","TIME_SYSTEM":"UTC","ECCENTRICITY":"0.00018690","NORAD_CAT_ID":"48281"},{"EPOCH":"2021-11-20T10:28:16.231008","TLE_LINE2":"2 48282  53.0567 290.7590 0001677  67.4480 292.6686 15.06393652 31647","LAUNCH_DATE":"2021-04-29","PERIAPSIS":"546.072","COUNTRY_CODE":"US","MEAN_ANOMALY":"292.6686","REF_FRAME":"TEME","REV_AT_EPOCH":"3164","OBJECT_ID":"2021-036G","NORAD_CAT_ID":"48282","ECCENTRICITY":"0.00016770","TIME_SYSTEM":"UTC","RA_OF_ASC_NODE":"290.7590","RCS_SIZE":"LARGE","OBJECT_TYPE":"PAYLOAD","BSTAR":"-0.00000883630000","SITE":"AFETR","TLE_LINE1":"1 48282U 21036G   21324.43629897 -.00000413  00000-0 -88363-5 0  9999","MEAN_ELEMENT_THEORY":"SGP4","APOAPSIS":"548.394","FILE":"3220049","ELEMENT_SET_NO":"999","CENTER_NAME":"EARTH","INCLINATION":"53.0567","MEAN_MOTION_DDOT":"0.0000000000000","EPHEMERIS_TYPE":"0","OBJECT_NAME":"STARLINK-2558","ARG_OF_PERICENTER":"67.4480","MEAN_MOTION_DOT":"-0.00000413","SEMIMAJOR_AXIS":"6925.368","MEAN_MOTION":"15.06393652","GP_ID":"190141941","DECAY_DATE":null,"CLASSIFICATION_TYPE":"U","PERIOD":"95.593"},{"CLASSIFICATION_TYPE":"U","PERIOD":"95.593","GP_ID":"190142193","DECAY_DATE":null,"SEMIMAJOR_AXIS":"6925.395","MEAN_MOTION_DOT":"-0.00000575","MEAN_MOTION":"15.06384972","EPHEMERIS_TYPE":"0","ARG_OF_PERICENTER":"62.9415","OBJECT_NAME":"STARLINK-2516","MEAN_MOTION_DDOT":"0.0000000000000","CENTER_NAME":"EARTH","ELEMENT_SET_NO":"999","APOAPSIS":"548.289","FILE":"3220049","INCLINATION":"53.0569","MEAN_ELEMENT_THEORY":"SGP4","BSTAR":"-0.00001973200000","TLE_LINE1":"1 48283U 21036H   21324.23357320 -.00000575  00000-0 -19732-4 0  9999","SITE":"AFETR","OBJECT_TYPE":"PAYLOAD","RA_OF_ASC_NODE":"291.6659","RCS_SIZE":"LARGE","TIME_SYSTEM":"UTC","NORAD_CAT_ID":"48283","ECCENTRICITY":"0.00014870","REV_AT_EPOCH":"3161","OBJECT_ID":"2021-036H","REF_FRAME":"TEME","MEAN_ANOMALY":"297.1725","LAUNCH_DATE":"2021-04-29","COUNTRY_CODE":"US","PERIAPSIS":"546.230","EPOCH":"2021-11-20T05:36:20.724480","TLE_LINE2":"2 48283  53.0569 291.6659 0001487  62.9415 297.1725 15.06384972 31619"},{"MEAN_ELEMENT_THEORY":"SGP4","BSTAR":"0.00022116000000","TLE_LINE1":"1 48284U 21036J   21324.42892338  .00003014  00000-0  22116-3 0  9992","SITE":"AFETR","MEAN_MOTION_DDOT":"0.0000000000000","ELEMENT_SET_NO":"999","CENTER_NAME":"EARTH","APOAPSIS":"548.422","FILE":"3220049","INCLINATION":"53.0519","SEMIMAJOR_AXIS":"6925.348","MEAN_MOTION_DOT":"0.00003014","MEAN_MOTION":"15.06400137","EPHEMERIS_TYPE":"0","ARG_OF_PERICENTER":"70.3577","OBJECT_NAME":"STARLINK-2564","CLASSIFICATION_TYPE":"U","PERIOD":"95.592","GP_ID":"190142943","DECAY_DATE":null,"LAUNCH_DATE":"2021-04-29","COUNTRY_CODE":"US","PERIAPSIS":"546.004","EPOCH":"2021-11-20T10:17:38.980032","TLE_LINE2":"2 48284  53.0519 290.7855 0001746  70.3577 289.7600 15.06400137 31636","REV_AT_EPOCH":"3163","OBJECT_ID":"2021-036J","REF_FRAME":"TEME","MEAN_ANOMALY":"289.7600","TIME_SYSTEM":"UTC","NORAD_CAT_ID":"48284","ECCENTRICITY":"0.00017460","OBJECT_TYPE":"PAYLOAD","RA_OF_ASC_NODE":"290.7855","RCS_SIZE":"LARGE"},{"ECCENTRICITY":"0.00017130","NORAD_CAT_ID":"48285","TIME_SYSTEM":"UTC","RCS_SIZE":"LARGE","RA_OF_ASC_NODE":"289.9105","OBJECT_TYPE":"PAYLOAD","TLE_LINE2":"2 48285  53.0514 289.9105 0001713  67.5305 292.5865 15.06398762 32244","EPOCH":"2021-11-20T14:58:57.448992","COUNTRY_CODE":"US","PERIAPSIS":"546.031","LAUNCH_DATE":"2021-04-29","REF_FRAME":"TEME","MEAN_ANOMALY":"292.5865","OBJECT_ID":"2021-036K","REV_AT_EPOCH":"3224","ARG_OF_PERICENTER":"67.5305","OBJECT_NAME":"STARLINK-2548","EPHEMERIS_TYPE":"0","MEAN_MOTION":"15.06398762","SEMIMAJOR_AXIS":"6925.352","MEAN_MOTION_DOT":"0.00002421","DECAY_DATE":null,"GP_ID":"190145368","PERIOD":"95.592","CLASSIFICATION_TYPE":"U","TLE_LINE1":"1 48285U 21036K   21324.62427603  .00002421  00000-0  18137-3 0  9993","SITE":"AFETR","BSTAR":"0.00018137000000","MEAN_ELEMENT_THEORY":"SGP4","INCLINATION":"53.0514","ELEMENT_SET_NO":"999","CENTER_NAME":"EARTH","APOAPSIS":"548.404","FILE":"3220106","MEAN_MOTION_DDOT":"0.0000000000000"}];
